{"type": "FeatureCollection", "features": [ {"type": "Feature", "properties": {"norad_id": 41335, "name": "SENTINEL-3A", "group": "resource", "lat": 12.35420471006537, "lon": -127.21346481839016, "alt_km": 803.6374787160403, "timestamp": "2025-12-11T20:41:14.744574+00:00", "meta": {"OBJECT_NAME": "SENTINEL-3A", "OBJECT_ID": "2016-011A", "EPOCH": "2025-12-11T08:07:25.470336", "MEAN_MOTION": 14.26745913, "ECCENTRICITY": 9.451e-05, "INCLINATION": 98.6209, "RA_OF_ASC_NODE": 50.3668, "ARG_OF_PERICENTER": 93.9278, "MEAN_ANOMALY": 266.2011, "EPHEMERIS_TYPE": 0, "CLASSIFICATION_TYPE": "U", "NORAD_CAT_ID": 41335, "ELEMENT_SET_NO": 999, "REV_AT_EPOCH": 51127, "BSTAR": 0.00012081977, "MEAN_MOTION_DOT": 2.49e-06, "MEAN_MOTION_DDOT": 0}, "tle": {"line1": "1 41335U 16011A   25345.33848924  .00000249  00000+0  12082-3 0  9995", "line2": "2 41335  98.6209  50.3668 0000945  93.9278 266.2011 14.26745913511272"}}, "geometry": {"type": "Point", "coordinates": [-127.21346481839016, 12.35420471006537]}}, {"type": "Feature", "properties": {"norad_id": 41556, "name": "ZIYUAN 3-2 (ZY 3-2)", "group": "resource", "lat": -19.735720740297413, "lon": 62.71725901909618, "alt_km": 506.22300456959147, "timestamp": "2025-12-11T20:41:14.744584+00:00", "meta": {"OBJECT_NAME": "ZIYUAN 3-2 (ZY 3-2)", "OBJECT_ID": "2016-033A", "EPOCH": "2025-12-11T14:27:40.034880", "MEAN_MOTION": 15.2148672, "ECCENTRICITY": 0.00124232, "INCLINATION": 97.4041, "RA_OF_ASC_NODE": 59.7881, "ARG_OF_PERICENTER": 253.4459, "MEAN_ANOMALY": 106.5412, "EPHEMERIS_TYPE": 0, "CLASSIFICATION_TYPE": "U", "NORAD_CAT_ID": 41556, "ELEMENT_SET_NO": 999, "REV_AT_EPOCH": 52946, "BSTAR": 0.00082897767, "MEAN_MOTION_DOT": 0.00018645, "MEAN_MOTION_DDOT": 0}, "tle": {"line1": "1 41556U 16033A   25345.60254670  .00018645  00000+0  82898-3 0  9994", "line2": "2 41556  97.4041  59.7881 0012423 253.4459 106.5412 15.21486720529461"}}, "geometry": {"type": "Point", "coordinates": [62.71725901909618, -19.735720740297413]}}, {"type": "Feature", "properties": {"norad_id": 41599, "name": "CARTOSAT-2C", "group": "resource", "lat": -67.94682642879908, "lon": 62.03649861442191, "alt_km": 520.7897690912268, "timestamp": "2025-12-11T20:41:14.744594+00:00", "meta": {"OBJECT_NAME": "CARTOSAT-2C", "OBJECT_ID": "2016-040A", "EPOCH": "2025-12-11T14:40:08.163840", "MEAN_MOTION": 15.19284182, "ECCENTRICITY": 0.00109966, "INCLINATION": 97.4763, "RA_OF_ASC_NODE": 42.873, "ARG_OF_PERICENTER": 68.6003, "MEAN_ANOMALY": 291.6403, "EPHEMERIS_TYPE": 0, "CLASSIFICATION_TYPE": "U", "NORAD_CAT_ID": 41599, "ELEMENT_SET_NO": 999, "REV_AT_EPOCH": 52523, "BSTAR": 0.00056306155, "MEAN_MOTION_DOT": 0.00011839, "MEAN_MOTION_DDOT": 0}, "tle": {"line1": "1 41599U 16040A   25345.61120560  .00011839  00000+0  56306-3 0  9993", "line2": "2 41599  97.4763  42.8730 0010996  68.6003 291.6403 15.19284182525231"}}, "geometry": {"type": "Point", "coordinates": [62.03649861442191, -67.94682642879908]}}, {"type": "Feature", "properties": {"norad_id": 41601, "name": "SKYSAT-C1", "group": "resource", "lat": -55.26575250183809, "lon": 33.10757930602133, "alt_km": 474.76971827448415, "timestamp": "2025-12-11T20:41:14.744605+00:00", "meta": {"OBJECT_NAME": "SKYSAT-C1", "OBJECT_ID": "2016-040C", "EPOCH": "2025-12-11T08:23:40.530624", "MEAN_MOTION": 15.32550324, "ECCENTRICITY": 0.00025282, "INCLINATION": 96.983, "RA_OF_ASC_NODE": 22.4415, "ARG_OF_PERICENTER": 19.7612, "MEAN_ANOMALY": 340.3729, "EPHEMERIS_TYPE": 0, "CLASSIFICATION_TYPE": "U", "NORAD_CAT_ID": 41601, "ELEMENT_SET_NO": 999, "REV_AT_EPOCH": 52906, "BSTAR": 0.0005196648, "MEAN_MOTION_DOT": 0.00016279, "MEAN_MOTION_DDOT": 0}, "tle": {"line1": "1 41601U 16040C   25345.34977466  .00016279  00000+0  51966-3 0  9992", "line2": "2 41601  96.9830  22.4415 0002528  19.7612 340.3729 15.32550324529060"}}, "geometry": {"type": "Point", "coordinates": [33.10757930602133, -55.26575250183809]}}, {"type": "Feature", "properties": {"norad_id": 41603, "name": "LAPAN-A3", "group": "resource", "lat": 82.73304794542956, "lon": -116.96879866003286, "alt_km": 466.46900925372756, "timestamp": "2025-12-11T20:41:14.744615+00:00", "meta": {"OBJECT_NAME": "LAPAN-A3", "OBJECT_ID": "2016-040E", "EPOCH": "2025-12-11T15:35:10.694112", "MEAN_MOTION": 15.31535965, "ECCENTRICITY": 0.00097929, "INCLINATION": 97.1434, "RA_OF_ASC_NODE": 343.2453, "ARG_OF_PERICENTER": 338.157, "MEAN_ANOMALY": 21.9253, "EPHEMERIS_TYPE": 0, "CLASSIFICATION_TYPE": "U", "NORAD_CAT_ID": 41603, "ELEMENT_SET_NO": 999, "REV_AT_EPOCH": 52609, "BSTAR": 0.00018195736, "MEAN_MOTION_DOT": 5.474e-05, "MEAN_MOTION_DDOT": 0}, "tle": {"line1": "1 41603U 16040E   25345.64942933  .00005474  00000+0  18196-3 0  9991", "line2": "2 41603  97.1434 343.2453 0009792 338.1570  21.9253 15.31535965526099"}}, "geometry": {"type": "Point", "coordinates": [-116.96879866003286, 82.73304794542956]}}, {"type": "Feature", "properties": {"norad_id": 41604, "name": "BIROS", "group": "resource", "lat": 82.83583674530544, "lon": -81.80129831128974, "alt_km": 295.7786177996968, "timestamp": "2025-12-11T20:41:14.744625+00:00", "meta": {"OBJECT_NAME": "BIROS", "OBJECT_ID": "2016-040F", "EPOCH": "2025-12-11T02:10:11.450784", "MEAN_MOTION": 15.88965505, "ECCENTRICITY": 0.00032243, "INCLINATION": 97.0705, "RA_OF_ASC_NODE": 16.4571, "ARG_OF_PERICENTER": 155.3544, "MEAN_ANOMALY": 204.7884, "EPHEMERIS_TYPE": 0, "CLASSIFICATION_TYPE": "U", "NORAD_CAT_ID": 41604, "ELEMENT_SET_NO": 999, "REV_AT_EPOCH": 52846, "BSTAR": 0.00075595049, "MEAN_MOTION_DOT": 0.0021286, "MEAN_MOTION_DDOT": 1.8142315e-05}, "tle": {"line1": "1 41604U 16040F   25345.09041031  .00212860  18142-4  75595-3 0  9996", "line2": "2 41604  97.0705  16.4571 0003224 155.3544 204.7884 15.88965505528467"}}, "geometry": {"type": "Point", "coordinates": [-81.80129831128974, 82.83583674530544]}}, {"type": "Feature", "properties": {"norad_id": 41727, "name": "GAOFEN-3", "group": "resource", "lat": 29.258339251331677, "lon": 176.21206602837856, "alt_km": 749.7342947108518, "timestamp": "2025-12-11T20:41:14.744635+00:00", "meta": {"OBJECT_NAME": "GAOFEN-3", "OBJECT_ID": "2016-049A", "EPOCH": "2025-12-11T14:59:51.932832", "MEAN_MOTION": 14.42213293, "ECCENTRICITY": 0.00014698, "INCLINATION": 98.4041, "RA_OF_ASC_NODE": 351.2279, "ARG_OF_PERICENTER": 62.2048, "MEAN_ANOMALY": 297.929, "EPHEMERIS_TYPE": 0, "CLASSIFICATION_TYPE": "U", "NORAD_CAT_ID": 41727, "ELEMENT_SET_NO": 999, "REV_AT_EPOCH": 49161, "BSTAR": 8.0876158e-05, "MEAN_MOTION_DOT": 2.23e-06, "MEAN_MOTION_DDOT": 0}, "tle": {"line1": "1 41727U 16049A   25345.62490663  .00000223  00000+0  80876-4 0  9995", "line2": "2 41727  98.4041 351.2279 0001469  62.2048 297.9290 14.42213293491610"}}, "geometry": {"type": "Point", "coordinates": [176.21206602837856, 29.258339251331677]}}, {"type": "Feature", "properties": {"norad_id": 41771, "name": "SKYSAT-C4", "group": "resource", "lat": -28.87643526726059, "lon": -172.7587395319708, "alt_km": 445.3515473449188, "timestamp": "2025-12-11T20:41:14.744645+00:00", "meta": {"OBJECT_NAME": "SKYSAT-C4", "OBJECT_ID": "2016-058B", "EPOCH": "2025-12-11T11:59:52.246464", "MEAN_MOTION": 15.42194983, "ECCENTRICITY": 0.00014121, "INCLINATION": 96.9377, "RA_OF_ASC_NODE": 10.7473, "ARG_OF_PERICENTER": 133.472, "MEAN_ANOMALY": 226.6646, "EPHEMERIS_TYPE": 0, "CLASSIFICATION_TYPE": "U", "NORAD_CAT_ID": 41771, "ELEMENT_SET_NO": 999, "REV_AT_EPOCH": 51648, "BSTAR": 0.00059624883, "MEAN_MOTION_DOT": 0.00025551, "MEAN_MOTION_DDOT": 0}, "tle": {"line1": "1 41771U 16058B   25345.49991026  .00025551  00000+0  59625-3 0  9996", "line2": "2 41771  96.9377  10.7473 0001412 133.4720 226.6646 15.42194983516485"}}, "geometry": {"type": "Point", "coordinates": [-172.7587395319708, -28.87643526726059]}}, {"type": "Feature", "properties": {"norad_id": 41772, "name": "SKYSAT-C5", "group": "resource", "lat": 33.335983323990696, "lon": -145.66500310628618, "alt_km": 456.2897951187979, "timestamp": "2025-12-11T20:41:14.744655+00:00", "meta": {"OBJECT_NAME": "SKYSAT-C5", "OBJECT_ID": "2016-058C", "EPOCH": "2025-12-11T01:16:55.377408", "MEAN_MOTION": 15.35316112, "ECCENTRICITY": 0.00024634, "INCLINATION": 97.0761, "RA_OF_ASC_NODE": 28.8717, "ARG_OF_PERICENTER": 138.4277, "MEAN_ANOMALY": 221.7155, "EPHEMERIS_TYPE": 0, "CLASSIFICATION_TYPE": "U", "NORAD_CAT_ID": 41772, "ELEMENT_SET_NO": 999, "REV_AT_EPOCH": 51490, "BSTAR": 0.0004403824, "MEAN_MOTION_DOT": 0.00015041, "MEAN_MOTION_DDOT": 0}, "tle": {"line1": "1 41772U 16058C   25345.05341872  .00015041  00000+0  44038-3 0  9992", "line2": "2 41772  97.0761  28.8717 0002463 138.4277 221.7155 15.35316112514903"}}, "geometry": {"type": "Point", "coordinates": [-145.66500310628618, 33.335983323990696]}}, {"type": "Feature", "properties": {"norad_id": 41773, "name": "SKYSAT-C2", "group": "resource", "lat": 30.2131852186743, "lon": -165.44934085722932, "alt_km": 453.98596178090247, "timestamp": "2025-12-11T20:41:14.744664+00:00", "meta": {"OBJECT_NAME": "SKYSAT-C2", "OBJECT_ID": "2016-058D", "EPOCH": "2025-12-11T12:13:42.560832", "MEAN_MOTION": 15.37227477, "ECCENTRICITY": 0.00043738, "INCLINATION": 97.0368, "RA_OF_ASC_NODE": 10.0882, "ARG_OF_PERICENTER": 37.6519, "MEAN_ANOMALY": 322.5032, "EPHEMERIS_TYPE": 0, "CLASSIFICATION_TYPE": "U", "NORAD_CAT_ID": 41773, "ELEMENT_SET_NO": 999, "REV_AT_EPOCH": 51617, "BSTAR": 0.00055910138, "MEAN_MOTION_DOT": 0.00020343, "MEAN_MOTION_DDOT": 0}, "tle": {"line1": "1 41773U 16058D   25345.50952038  .00020343  00000+0  55910-3 0  9997", "line2": "2 41773  97.0368  10.0882 0004373  37.6519 322.5032 15.37227477516176"}}, "geometry": {"type": "Point", "coordinates": [-165.44934085722932, 30.2131852186743]}}]}